<?xml version="1.0" encoding="UTF-8"?>
<ndm xmlns:xsi="http://www.w3.org/2001/XMLSchema-instance" xsi:noNamespaceSchemaLocation="https://sanaregistry.org/r/ndmxml_unqualified/ndmxml-2.0.0-master-2.0.xsd">
<omm id="CCSDS_OMM_VERS" version="2.0">
<header><CREATION_DATE/><ORIGINATOR/></header><body><segment><metadata><OBJECT_NAME>ORBCOMM FM24</OBJECT_NAME><OBJECT_ID>1998-053D</OBJECT_ID><CENTER_NAME>EARTH</CENTER_NAME><REF_FRAME>TEME</REF_FRAME><TIME_SYSTEM>UTC</TIME_SYSTEM><MEAN_ELEMENT_THEORY>SGP4</MEAN_ELEMENT_THEORY></metadata><data><meanElements><EPOCH>2024-10-01T18:27:42.718752</EPOCH><MEAN_MOTION>14.36517672</MEAN_MOTION><ECCENTRICITY>.0000587</ECCENTRICITY><INCLINATION>45.0081</INCLINATION><RA_OF_ASC_NODE>53.1113</RA_OF_ASC_NODE><ARG_OF_PERICENTER>263.2805</ARG_OF_PERICENTER><MEAN_ANOMALY>96.7976</MEAN_ANOMALY></meanElements><tleParameters><EPHEMERIS_TYPE>0</EPHEMERIS_TYPE><CLASSIFICATION_TYPE>U</CLASSIFICATION_TYPE><NORAD_CAT_ID>25478</NORAD_CAT_ID><ELEMENT_SET_NO>999</ELEMENT_SET_NO><REV_AT_EPOCH>36026</REV_AT_EPOCH><BSTAR>.16824E-2</BSTAR><MEAN_MOTION_DOT>.4846E-4</MEAN_MOTION_DOT><MEAN_MOTION_DDOT>0</MEAN_MOTION_DDOT></tleParameters></data></segment></body></omm>
<omm id="CCSDS_OMM_VERS" version="2.0">
<header><CREATION_DATE/><ORIGINATOR/></header><body><segment><metadata><OBJECT_NAME>ORBCOMM FM25</OBJECT_NAME><OBJECT_ID>1998-053E</OBJECT_ID><CENTER_NAME>EARTH</CENTER_NAME><REF_FRAME>TEME</REF_FRAME><TIME_SYSTEM>UTC</TIME_SYSTEM><MEAN_ELEMENT_THEORY>SGP4</MEAN_ELEMENT_THEORY></metadata><data><meanElements><EPOCH>2024-10-01T19:21:52.100928</EPOCH><MEAN_MOTION>14.36502516</MEAN_MOTION><ECCENTRICITY>.0002104</ECCENTRICITY><INCLINATION>45.0073</INCLINATION><RA_OF_ASC_NODE>51.1860</RA_OF_ASC_NODE><ARG_OF_PERICENTER>27.6884</ARG_OF_PERICENTER><MEAN_ANOMALY>332.4075</MEAN_ANOMALY></meanElements><tleParameters><EPHEMERIS_TYPE>0</EPHEMERIS_TYPE><CLASSIFICATION_TYPE>U</CLASSIFICATION_TYPE><NORAD_CAT_ID>25479</NORAD_CAT_ID><ELEMENT_SET_NO>999</ELEMENT_SET_NO><REV_AT_EPOCH>36056</REV_AT_EPOCH><BSTAR>.19253E-2</BSTAR><MEAN_MOTION_DOT>.5565E-4</MEAN_MOTION_DOT><MEAN_MOTION_DDOT>0</MEAN_MOTION_DDOT></tleParameters></data></segment></body></omm>
<omm id="CCSDS_OMM_VERS" version="2.0">
<header><CREATION_DATE/><ORIGINATOR/></header><body><segment><metadata><OBJECT_NAME>ORBCOMM FM26</OBJECT_NAME><OBJECT_ID>1998-053F</OBJECT_ID><CENTER_NAME>EARTH</CENTER_NAME><REF_FRAME>TEME</REF_FRAME><TIME_SYSTEM>UTC</TIME_SYSTEM><MEAN_ELEMENT_THEORY>SGP4</MEAN_ELEMENT_THEORY></metadata><data><meanElements><EPOCH>2024-10-01T17:39:36.272736</EPOCH><MEAN_MOTION>14.35805381</MEAN_MOTION><ECCENTRICITY>.0004249</ECCENTRICITY><INCLINATION>45.0070</INCLINATION><RA_OF_ASC_NODE>46.3123</RA_OF_ASC_NODE><ARG_OF_PERICENTER>58.0181</ARG_OF_PERICENTER><MEAN_ANOMALY>302.1079</MEAN_ANOMALY></meanElements><tleParameters><EPHEMERIS_TYPE>0</EPHEMERIS_TYPE><CLASSIFICATION_TYPE>U</CLASSIFICATION_TYPE><NORAD_CAT_ID>25480</NORAD_CAT_ID><ELEMENT_SET_NO>999</ELEMENT_SET_NO><REV_AT_EPOCH>36048</REV_AT_EPOCH><BSTAR>.13927E-2</BSTAR><MEAN_MOTION_DOT>.3928E-4</MEAN_MOTION_DOT><MEAN_MOTION_DDOT>0</MEAN_MOTION_DDOT></tleParameters></data></segment></body></omm>
<omm id="CCSDS_OMM_VERS" version="2.0">
<header><CREATION_DATE/><ORIGINATOR/></header><body><segment><metadata><OBJECT_NAME>ORBCOMM FM27</OBJECT_NAME><OBJECT_ID>1998-053G</OBJECT_ID><CENTER_NAME>EARTH</CENTER_NAME><REF_FRAME>TEME</REF_FRAME><TIME_SYSTEM>UTC</TIME_SYSTEM><MEAN_ELEMENT_THEORY>SGP4</MEAN_ELEMENT_THEORY></metadata><data><meanElements><EPOCH>2024-10-01T19:06:25.111008</EPOCH><MEAN_MOTION>14.36496889</MEAN_MOTION><ECCENTRICITY>.0001812</ECCENTRICITY><INCLINATION>45.0058</INCLINATION><RA_OF_ASC_NODE>51.4938</RA_OF_ASC_NODE><ARG_OF_PERICENTER>208.9570</ARG_OF_PERICENTER><MEAN_ANOMALY>151.1177</MEAN_ANOMALY></meanElements><tleParameters><EPHEMERIS_TYPE>0</EPHEMERIS_TYPE><CLASSIFICATION_TYPE>U</CLASSIFICATION_TYPE><NORAD_CAT_ID>25481</NORAD_CAT_ID><ELEMENT_SET_NO>999</ELEMENT_SET_NO><REV_AT_EPOCH>36049</REV_AT_EPOCH><BSTAR>.20009E-2</BSTAR><MEAN_MOTION_DOT>.5789E-4</MEAN_MOTION_DOT><MEAN_MOTION_DDOT>0</MEAN_MOTION_DDOT></tleParameters></data></segment></body></omm>
<omm id="CCSDS_OMM_VERS" version="2.0">
<header><CREATION_DATE/><ORIGINATOR/></header><body><segment><metadata><OBJECT_NAME>ORBCOMM FM28</OBJECT_NAME><OBJECT_ID>1998-053H</OBJECT_ID><CENTER_NAME>EARTH</CENTER_NAME><REF_FRAME>TEME</REF_FRAME><TIME_SYSTEM>UTC</TIME_SYSTEM><MEAN_ELEMENT_THEORY>SGP4</MEAN_ELEMENT_THEORY></metadata><data><meanElements><EPOCH>2024-10-01T14:27:53.638560</EPOCH><MEAN_MOTION>14.36855026</MEAN_MOTION><ECCENTRICITY>.0001757</ECCENTRICITY><INCLINATION>45.0067</INCLINATION><RA_OF_ASC_NODE>350.4288</RA_OF_ASC_NODE><ARG_OF_PERICENTER>97.6947</ARG_OF_PERICENTER><MEAN_ANOMALY>262.4100</MEAN_ANOMALY></meanElements><tleParameters><EPHEMERIS_TYPE>0</EPHEMERIS_TYPE><CLASSIFICATION_TYPE>U</CLASSIFICATION_TYPE><NORAD_CAT_ID>25482</NORAD_CAT_ID><ELEMENT_SET_NO>999</ELEMENT_SET_NO><REV_AT_EPOCH>36114</REV_AT_EPOCH><BSTAR>.15308E-2</BSTAR><MEAN_MOTION_DOT>.4427E-4</MEAN_MOTION_DOT><MEAN_MOTION_DDOT>0</MEAN_MOTION_DDOT></tleParameters></data></segment></body></omm>
<omm id="CCSDS_OMM_VERS" version="2.0">
<header><CREATION_DATE/><ORIGINATOR/></header><body><segment><metadata><OBJECT_NAME>ORBCOMM FM30</OBJECT_NAME><OBJECT_ID>1999-065A</OBJECT_ID><CENTER_NAME>EARTH</CENTER_NAME><REF_FRAME>TEME</REF_FRAME><TIME_SYSTEM>UTC</TIME_SYSTEM><MEAN_ELEMENT_THEORY>SGP4</MEAN_ELEMENT_THEORY></metadata><data><meanElements><EPOCH>2024-10-01T14:44:49.583328</EPOCH><MEAN_MOTION>14.35953311</MEAN_MOTION><ECCENTRICITY>.0004403</ECCENTRICITY><INCLINATION>45.0295</INCLINATION><RA_OF_ASC_NODE>232.5580</RA_OF_ASC_NODE><ARG_OF_PERICENTER>157.4284</ARG_OF_PERICENTER><MEAN_ANOMALY>202.6758</MEAN_ANOMALY></meanElements><tleParameters><EPHEMERIS_TYPE>0</EPHEMERIS_TYPE><CLASSIFICATION_TYPE>U</CLASSIFICATION_TYPE><NORAD_CAT_ID>25980</NORAD_CAT_ID><ELEMENT_SET_NO>999</ELEMENT_SET_NO><REV_AT_EPOCH>29726</REV_AT_EPOCH><BSTAR>.15909E-2</BSTAR><MEAN_MOTION_DOT>.4522E-4</MEAN_MOTION_DOT><MEAN_MOTION_DDOT>0</MEAN_MOTION_DDOT></tleParameters></data></segment></body></omm>
<omm id="CCSDS_OMM_VERS" version="2.0">
<header><CREATION_DATE/><ORIGINATOR/></header><body><segment><metadata><OBJECT_NAME>ORBCOMM FM31</OBJECT_NAME><OBJECT_ID>1999-065B</OBJECT_ID><CENTER_NAME>EARTH</CENTER_NAME><REF_FRAME>TEME</REF_FRAME><TIME_SYSTEM>UTC</TIME_SYSTEM><MEAN_ELEMENT_THEORY>SGP4</MEAN_ELEMENT_THEORY></metadata><data><meanElements><EPOCH>2024-10-01T20:37:22.875456</EPOCH><MEAN_MOTION>14.35931434</MEAN_MOTION><ECCENTRICITY>.0002329</ECCENTRICITY><INCLINATION>45.0215</INCLINATION><RA_OF_ASC_NODE>225.0002</RA_OF_ASC_NODE><ARG_OF_PERICENTER>203.9990</ARG_OF_PERICENTER><MEAN_ANOMALY>156.0749</MEAN_ANOMALY></meanElements><tleParameters><EPHEMERIS_TYPE>0</EPHEMERIS_TYPE><CLASSIFICATION_TYPE>U</CLASSIFICATION_TYPE><NORAD_CAT_ID>25981</NORAD_CAT_ID><ELEMENT_SET_NO>999</ELEMENT_SET_NO><REV_AT_EPOCH>29685</REV_AT_EPOCH><BSTAR>.16187E-2</BSTAR><MEAN_MOTION_DOT>.4601E-4</MEAN_MOTION_DOT><MEAN_MOTION_DDOT>0</MEAN_MOTION_DDOT></tleParameters></data></segment></body></omm>
<omm id="CCSDS_OMM_VERS" version="2.0">
<header><CREATION_DATE/><ORIGINATOR/></header><body><segment><metadata><OBJECT_NAME>ORBCOMM FM32</OBJECT_NAME><OBJECT_ID>1999-065C</OBJECT_ID><CENTER_NAME>EARTH</CENTER_NAME><REF_FRAME>TEME</REF_FRAME><TIME_SYSTEM>UTC</TIME_SYSTEM><MEAN_ELEMENT_THEORY>SGP4</MEAN_ELEMENT_THEORY></metadata><data><meanElements><EPOCH>2024-10-01T14:13:26.007168</EPOCH><MEAN_MOTION>14.34948678</MEAN_MOTION><ECCENTRICITY>.0004381</ECCENTRICITY><INCLINATION>45.0141</INCLINATION><RA_OF_ASC_NODE>241.0782</RA_OF_ASC_NODE><ARG_OF_PERICENTER>195.1736</ARG_OF_PERICENTER><MEAN_ANOMALY>164.8980</MEAN_ANOMALY></meanElements><tleParameters><EPHEMERIS_TYPE>0</EPHEMERIS_TYPE><CLASSIFICATION_TYPE>U</CLASSIFICATION_TYPE><NORAD_CAT_ID>25982</NORAD_CAT_ID><ELEMENT_SET_NO>999</ELEMENT_SET_NO><REV_AT_EPOCH>29743</REV_AT_EPOCH><BSTAR>.16456E-2</BSTAR><MEAN_MOTION_DOT>.4586E-4</MEAN_MOTION_DOT><MEAN_MOTION_DDOT>0</MEAN_MOTION_DDOT></tleParameters></data></segment></body></omm>

</ndm>
