ORBCOMM FM24            
1 25478U 98053D   24275.76924443  .00004846  00000+0  16824-2 0  9994
2 25478  45.0081  53.1113 0000587 263.2805  96.7976 14.36517672360269
ORBCOMM FM25            
1 25479U 98053E   24275.80685302  .00005565  00000+0  19253-2 0  9996
2 25479  45.0073  51.1860 0002104  27.6884 332.4075 14.36502516360568
ORBCOMM FM26            
1 25480U 98053F   24275.73583649  .00003928  00000+0  13927-2 0  9994
2 25480  45.0070  46.3123 0004249  58.0181 302.1079 14.35805381360489
ORBCOMM FM27            
1 25481U 98053G   24275.79612397  .00005789  00000+0  20009-2 0  9990
2 25481  45.0058  51.4938 0001812 208.9570 151.1177 14.36496889360490
ORBCOMM FM28            
1 25482U 98053H   24275.60270415  .00004427  00000+0  15308-2 0  9996
2 25482  45.0067 350.4288 0001757  97.6947 262.4100 14.36855026361147
ORBCOMM FM30            
1 25980U 99065A   24275.61446277  .00004522  00000+0  15909-2 0  9998
2 25980  45.0295 232.5580 0004403 157.4284 202.6758 14.35953311297269
ORBCOMM FM31            
1 25981U 99065B   24275.85929254  .00004601  00000+0  16187-2 0  9993
2 25981  45.0215 225.0002 0002329 203.9990 156.0749 14.35931434296852
ORBCOMM FM32            
1 25982U 99065C   24275.59266212  .00004586  00000+0  16456-2 0  9994
2 25982  45.0141 241.0782 0004381 195.1736 164.8980 14.34948678297430
